start=new Date('2023-02-10T00:00:00.000Z').valueOf();
sats=[{"SEMIMAJOR_AXIS":"6917.817","COUNTRY_CODE":"US","FILE":"3782849","MEAN_ELEMENT_THEORY":"SGP4","MEAN_MOTION_DOT":"0.00036751","TLE_LINE2":"2 51875  53.2157  16.3919 0000865  67.6354 292.4730 15.08860697 53386","TIME_SYSTEM":"UTC","REF_FRAME":"TEME","MEAN_MOTION_DDOT":"0.0000000000000","OBJECT_ID":"2022-022Z","CENTER_NAME":"EARTH","PERIAPSIS":"539.084","ARG_OF_PERICENTER":"67.6354","EPOCH":"2023-02-09T08:53:28.039488","RCS_SIZE":"LARGE","ELEMENT_SET_NO":"999","BSTAR":"0.00231390000000","EPHEMERIS_TYPE":"0","NORAD_CAT_ID":"51875","REV_AT_EPOCH":"5338","MEAN_ANOMALY":"292.4730","OBJECT_TYPE":"PAYLOAD","GP_ID":"224927930","CLASSIFICATION_TYPE":"U","OBJECT_NAME":"STARLINK-3585","SITE":"AFETR","PERIOD":"95.436","INCLINATION":"53.2157","TLE_LINE1":"1 51875U 22022Z   23040.37046342  .00036751  00000-0  23139-2 0  9994","APOAPSIS":"540.281","DECAY_DATE":null,"MEAN_MOTION":"15.08860697","LAUNCH_DATE":"2022-03-03","ECCENTRICITY":"0.00008650","RA_OF_ASC_NODE":"16.3919"},{"FILE":"3782849","MEAN_ELEMENT_THEORY":"SGP4","SEMIMAJOR_AXIS":"6917.828","COUNTRY_CODE":"US","MEAN_MOTION_DOT":"0.00023622","TLE_LINE2":"2 51876  53.2177  16.6382 0001100 102.5960 257.5156 15.08857170 53376","TIME_SYSTEM":"UTC","REF_FRAME":"TEME","MEAN_MOTION_DDOT":"0.0000000000000","OBJECT_ID":"2022-022AA","CENTER_NAME":"EARTH","PERIAPSIS":"538.932","ARG_OF_PERICENTER":"102.5960","EPOCH":"2023-02-09T07:32:36.174912","RCS_SIZE":"LARGE","BSTAR":"0.00149660000000","ELEMENT_SET_NO":"999","MEAN_ANOMALY":"257.5156","EPHEMERIS_TYPE":"0","NORAD_CAT_ID":"51876","REV_AT_EPOCH":"5337","OBJECT_TYPE":"PAYLOAD","GP_ID":"224927747","SITE":"AFETR","PERIOD":"95.436","INCLINATION":"53.2177","CLASSIFICATION_TYPE":"U","OBJECT_NAME":"STARLINK-3583","TLE_LINE1":"1 51876U 22022AA  23040.31430758  .00023622  00000-0  14966-2 0  9998","APOAPSIS":"540.454","DECAY_DATE":null,"MEAN_MOTION":"15.08857170","LAUNCH_DATE":"2022-03-03","RA_OF_ASC_NODE":"16.6382","ECCENTRICITY":"0.00011000"},{"BSTAR":"0.00395800000000","RCS_SIZE":"LARGE","ELEMENT_SET_NO":"999","NORAD_CAT_ID":"51877","EPHEMERIS_TYPE":"0","REV_AT_EPOCH":"5352","MEAN_ANOMALY":"266.4994","ARG_OF_PERICENTER":"93.6152","EPOCH":"2023-02-09T10:18:14.481792","MEAN_MOTION_DDOT":"0.0000000000000","REF_FRAME":"TEME","OBJECT_ID":"2022-022AB","CENTER_NAME":"EARTH","PERIAPSIS":"538.784","SEMIMAJOR_AXIS":"6917.851","COUNTRY_CODE":"US","MEAN_ELEMENT_THEORY":"SGP4","FILE":"3782313","MEAN_MOTION_DOT":"0.00063286","TIME_SYSTEM":"UTC","TLE_LINE2":"2 51877  53.2164   6.1269 0001347  93.6152 266.4994 15.08849757 53525","LAUNCH_DATE":"2022-03-03","ECCENTRICITY":"0.00013470","RA_OF_ASC_NODE":"6.1269","TLE_LINE1":"1 51877U 22022AB  23040.42933428  .00063286  00000-0  39580-2 0  9992","APOAPSIS":"540.647","DECAY_DATE":null,"MEAN_MOTION":"15.08849757","OBJECT_NAME":"STARLINK-3556","CLASSIFICATION_TYPE":"U","SITE":"AFETR","INCLINATION":"53.2164","PERIOD":"95.437","OBJECT_TYPE":"PAYLOAD","GP_ID":"224912100"},{"SITE":"AFETR","INCLINATION":"53.2151","PERIOD":"95.436","CLASSIFICATION_TYPE":"U","OBJECT_NAME":"STARLINK-3575","OBJECT_TYPE":"PAYLOAD","GP_ID":"224928097","LAUNCH_DATE":"2022-03-03","RA_OF_ASC_NODE":"16.0842","ECCENTRICITY":"0.00010640","TLE_LINE1":"1 51878U 22022AC  23040.43942719  .00027086  00000-0  17125-2 0  9996","APOAPSIS":"540.421","DECAY_DATE":null,"MEAN_MOTION":"15.08859676","REF_FRAME":"TEME","MEAN_MOTION_DDOT":"0.0000000000000","OBJECT_ID":"2022-022AC","CENTER_NAME":"EARTH","PERIAPSIS":"538.949","FILE":"3782862","MEAN_ELEMENT_THEORY":"SGP4","SEMIMAJOR_AXIS":"6917.820","COUNTRY_CODE":"US","MEAN_MOTION_DOT":"0.00027086","TIME_SYSTEM":"UTC","TLE_LINE2":"2 51878  53.2151  16.0842 0001064  76.5588 283.5522 15.08859676 53391","BSTAR":"0.00171250000000","RCS_SIZE":"LARGE","ELEMENT_SET_NO":"999","MEAN_ANOMALY":"283.5522","EPHEMERIS_TYPE":"0","NORAD_CAT_ID":"51878","REV_AT_EPOCH":"5339","ARG_OF_PERICENTER":"76.5588","EPOCH":"2023-02-09T10:32:46.509216"},{"MEAN_ANOMALY":"261.8702","NORAD_CAT_ID":"51879","EPHEMERIS_TYPE":"0","REV_AT_EPOCH":"5355","RCS_SIZE":"LARGE","ELEMENT_SET_NO":"999","BSTAR":"0.00015564000000","EPOCH":"2023-02-09T14:53:46.068576","ARG_OF_PERICENTER":"98.2430","CENTER_NAME":"EARTH","PERIAPSIS":"538.905","MEAN_MOTION_DDOT":"0.0000000000000","REF_FRAME":"TEME","OBJECT_ID":"2022-022AD","MEAN_MOTION_DOT":"0.00002190","TLE_LINE2":"2 51879  53.2179   5.2672 0001236  98.2430 261.8702 15.08835110 53555","TIME_SYSTEM":"UTC","MEAN_ELEMENT_THEORY":"SGP4","FILE":"3783241","SEMIMAJOR_AXIS":"6917.895","COUNTRY_CODE":"US","ECCENTRICITY":"0.00012360","RA_OF_ASC_NODE":"5.2672","LAUNCH_DATE":"2022-03-03","DECAY_DATE":null,"MEAN_MOTION":"15.08835110","TLE_LINE1":"1 51879U 22022AD  23040.62067209  .00002190  00000-0  15564-3 0  9995","APOAPSIS":"540.615","SITE":"AFETR","PERIOD":"95.438","INCLINATION":"53.2179","OBJECT_NAME":"STARLINK-3572","CLASSIFICATION_TYPE":"U","OBJECT_TYPE":"PAYLOAD","GP_ID":"224958804"},{"INCLINATION":"53.2168","PERIOD":"95.437","SITE":"AFETR","CLASSIFICATION_TYPE":"U","OBJECT_NAME":"STARLINK-3566","GP_ID":"224930769","OBJECT_TYPE":"PAYLOAD","LAUNCH_DATE":"2022-03-03","ECCENTRICITY":"0.00015190","RA_OF_ASC_NODE":"16.5289","APOAPSIS":"540.756","TLE_LINE1":"1 51880U 22022AE  23040.33734405  .00018204  00000-0  11585-2 0  9995","MEAN_MOTION":"15.08853020","DECAY_DATE":null,"OBJECT_ID":"2022-022AE","REF_FRAME":"TEME","MEAN_MOTION_DDOT":"0.0000000000000","PERIAPSIS":"538.655","CENTER_NAME":"EARTH","FILE":"3782984","MEAN_ELEMENT_THEORY":"SGP4","COUNTRY_CODE":"US","SEMIMAJOR_AXIS":"6917.841","TLE_LINE2":"2 51880  53.2168  16.5289 0001519 101.6470 258.4693 15.08853020 53372","TIME_SYSTEM":"UTC","MEAN_MOTION_DOT":"0.00018204","BSTAR":"0.00115850000000","RCS_SIZE":"LARGE","ELEMENT_SET_NO":"999","MEAN_ANOMALY":"258.4693","REV_AT_EPOCH":"5337","NORAD_CAT_ID":"51880","EPHEMERIS_TYPE":"0","ARG_OF_PERICENTER":"101.6470","EPOCH":"2023-02-09T08:05:46.525920"},{"CENTER_NAME":"EARTH","PERIAPSIS":"538.897","REF_FRAME":"TEME","MEAN_MOTION_DDOT":"0.0000000000000","OBJECT_ID":"2022-022AF","MEAN_MOTION_DOT":"0.00046809","TLE_LINE2":"2 51881  53.2161   6.1938 0001096 109.4154 250.6957 15.08869351 53570","TIME_SYSTEM":"UTC","SEMIMAJOR_AXIS":"6917.791","COUNTRY_CODE":"US","MEAN_ELEMENT_THEORY":"SGP4","FILE":"3782862","NORAD_CAT_ID":"51881","EPHEMERIS_TYPE":"0","REV_AT_EPOCH":"5357","MEAN_ANOMALY":"250.6957","RCS_SIZE":"LARGE","ELEMENT_SET_NO":"999","BSTAR":"0.00293740000000","EPOCH":"2023-02-09T09:57:00.118080","ARG_OF_PERICENTER":"109.4154","CLASSIFICATION_TYPE":"U","OBJECT_NAME":"STARLINK-3504","SITE":"AFETR","INCLINATION":"53.2161","PERIOD":"95.436","OBJECT_TYPE":"PAYLOAD","GP_ID":"224928590","ECCENTRICITY":"0.00010960","RA_OF_ASC_NODE":"6.1938","LAUNCH_DATE":"2022-03-03","DECAY_DATE":null,"MEAN_MOTION":"15.08869351","TLE_LINE1":"1 51881U 22022AF  23040.41458470  .00046809  00000-0  29374-2 0  9997","APOAPSIS":"540.414"},{"INCLINATION":"53.2169","PERIOD":"95.437","SITE":"AFETR","CLASSIFICATION_TYPE":"U","OBJECT_NAME":"STARLINK-3570","GP_ID":"224959054","OBJECT_TYPE":"PAYLOAD","RA_OF_ASC_NODE":"4.9429","ECCENTRICITY":"0.00014210","LAUNCH_DATE":"2022-03-03","MEAN_MOTION":"15.08843257","DECAY_DATE":null,"APOAPSIS":"540.718","TLE_LINE1":"1 51882U 22022AG  23040.69059109  .00012524  00000-0  80349-3 0  9991","PERIAPSIS":"538.752","CENTER_NAME":"EARTH","OBJECT_ID":"2022-022AG","MEAN_MOTION_DDOT":"0.0000000000000","REF_FRAME":"TEME","TLE_LINE2":"2 51882  53.2169   4.9429 0001421  86.3740 273.7414 15.08843257 53612","TIME_SYSTEM":"UTC","MEAN_MOTION_DOT":"0.00012524","FILE":"3783241","MEAN_ELEMENT_THEORY":"SGP4","COUNTRY_CODE":"US","SEMIMAJOR_AXIS":"6917.870","MEAN_ANOMALY":"273.7414","REV_AT_EPOCH":"5361","NORAD_CAT_ID":"51882","EPHEMERIS_TYPE":"0","RCS_SIZE":"LARGE","ELEMENT_SET_NO":"999","BSTAR":"0.00080349000000","EPOCH":"2023-02-09T16:34:27.070176","ARG_OF_PERICENTER":"86.3740"},{"LAUNCH_DATE":"2022-03-03","RA_OF_ASC_NODE":"4.1383","ECCENTRICITY":"0.00010600","TLE_LINE1":"1 51883U 22022AH  23040.87187251  .00046593  00000-0  29276-2 0  9996","APOAPSIS":"540.526","DECAY_DATE":null,"MEAN_MOTION":"15.08824545","SITE":"AFETR","PERIOD":"95.439","INCLINATION":"53.2169","CLASSIFICATION_TYPE":"U","OBJECT_NAME":"STARLINK-3576","OBJECT_TYPE":"PAYLOAD","GP_ID":"224932000","RCS_SIZE":"LARGE","ELEMENT_SET_NO":"999","BSTAR":"0.00292760000000","MEAN_ANOMALY":"257.8194","EPHEMERIS_TYPE":"0","NORAD_CAT_ID":"51883","REV_AT_EPOCH":"5358","ARG_OF_PERICENTER":"102.2917","EPOCH":"2023-02-09T20:55:29.784864","MEAN_MOTION_DDOT":"0.0000000000000","REF_FRAME":"TEME","OBJECT_ID":"2022-022AH","CENTER_NAME":"EARTH","PERIAPSIS":"539.059","FILE":"3783049","MEAN_ELEMENT_THEORY":"SGP4","SEMIMAJOR_AXIS":"6917.928","COUNTRY_CODE":"US","MEAN_MOTION_DOT":"0.00046593","TIME_SYSTEM":"UTC","TLE_LINE2":"2 51883  53.2169   4.1383 0001060 102.2917 257.8194 15.08824545 53580"},{"FILE":"3783241","MEAN_ELEMENT_THEORY":"SGP4","SEMIMAJOR_AXIS":"6917.908","COUNTRY_CODE":"US","MEAN_MOTION_DOT":"0.00003614","TLE_LINE2":"2 51884  53.2182   5.2803 0001431 100.3391 259.7762 15.08831061 53631","TIME_SYSTEM":"UTC","REF_FRAME":"TEME","MEAN_MOTION_DDOT":"0.0000000000000","OBJECT_ID":"2022-022AJ","CENTER_NAME":"EARTH","PERIAPSIS":"538.783","ARG_OF_PERICENTER":"100.3391","EPOCH":"2023-02-09T14:48:27.786528","RCS_SIZE":"LARGE","ELEMENT_SET_NO":"999","BSTAR":"0.00024507000000","MEAN_ANOMALY":"259.7762","NORAD_CAT_ID":"51884","EPHEMERIS_TYPE":"0","REV_AT_EPOCH":"5363","OBJECT_TYPE":"PAYLOAD","GP_ID":"224959550","SITE":"AFETR","INCLINATION":"53.2182","PERIOD":"95.438","OBJECT_NAME":"STARLINK-3577","CLASSIFICATION_TYPE":"U","TLE_LINE1":"1 51884U 22022AJ  23040.61698827  .00003614  00000-0  24507-3 0  9995","APOAPSIS":"540.763","DECAY_DATE":null,"MEAN_MOTION":"15.08831061","LAUNCH_DATE":"2022-03-03","RA_OF_ASC_NODE":"5.2803","ECCENTRICITY":"0.00014310"}];
